     3.04           N: GNSS NAV DATA    M: MIXED            RINEX VERSION / TYPE
ssrcrin-15.6.1x                         20250101 190000 UTC PGM / RUN BY / DATE 
    18                                                      LEAP SECONDS        
                                                            END OF HEADER       
C38 2025 01 01 19 00 00 2.004440175369E-04 2.192024339820E-12 0.000000000000E+00
     1.000000000000E+00-3.037187500000E+02 1.117189392565E-09-2.086664263039E+00
    -9.931623935699E-06 2.295568468980E-03-1.522898674011E-05 6.492959537506E+03
     3.276000000000E+05 4.842877388000E-08-9.553919769393E-01-1.536682248116E-08
     1.010902385902E+00 7.233125000000E+02-2.434289116861E+00-2.673682798192E-09
    -2.264380034803E-10 0.000000000000E+00 9.910000000000E+02 0.000000000000E+00
     2.000000000000E+00 0.000000000000E+00 3.000000000000E-09 3.000000000000E-09
     3.276180000000E+05 1.000000000000E+00
S23 2025 01 01 18 59 44 0.000000000000E+00 0.000000000000E+00 3.276560000000E+05
     3.866796400000E+04 0.000000000000E+00 0.000000000000E+00 6.300000000000E+01
     1.681330800000E+04 0.000000000000E+00 0.000000000000E+00 3.276700000000E+04
     0.000000000000E+00 0.000000000000E+00 0.000000000000E+00 1.800000000000E+01
E13 2025 01 01 18 50 00-2.861744724214E-05-3.979039320257E-13 0.000000000000E+00
     3.700000000000E+01 1.728125000000E+02 2.579393156364E-09 2.084918527785E+00
     8.115544915199E-06 3.847082844004E-04 1.246109604836E-06 5.440610492706E+03
     3.270000000000E+05-1.862645149231E-08-1.775991529084E+00 4.284083843231E-08
     9.996866567333E-01 3.323125000000E+02-1.109015586494E+00-5.589875697903E-09
     1.967939115420E-10 5.170000000000E+02 2.347000000000E+03
     3.120000000000E+00 0.000000000000E+00 2.561137080193E-09 3.259629011154E-09
     3.276650000000E+05
E21 2025 01 01 18 50 00-6.376228993759E-04-2.245315045002E-12 0.000000000000E+00
     3.700000000000E+01-2.346875000000E+01 3.549076404706E-09 1.242685730757E+00
    -1.031905412674E-06 2.548374468461E-04 6.308779120445E-06 5.440604602814E+03
     3.270000000000E+05-1.676380634308E-08 2.413493682237E+00 3.725290298462E-08
     9.642247983474E-01 2.071562500000E+02 1.031722061079E+00-5.533444775900E-09
    -5.185930300527E-10 5.170000000000E+02 2.347000000000E+03
     3.120000000000E+00 0.000000000000E+00 0.000000000000E+00 6.984919309616E-10
     3.276650000000E+05
E15 2025 01 01 18 50 00-1.485141692683E-04-2.231104190287E-12 0.000000000000E+00
     3.700000000000E+01 1.612500000000E+02 2.505461505386E-09 2.956802282409E+00
     7.502734661102E-06 4.364517517388E-04 1.804903149605E-06 5.440612636566E+03
     3.270000000000E+05-3.166496753693E-08-1.776066256403E+00-1.862645149231E-09
     9.996431597901E-01 3.229687500000E+02-1.182206593684E+00-5.565946129712E-09
     1.871506527187E-10 5.170000000000E+02 2.347000000000E+03
     3.120000000000E+00 0.000000000000E+00 3.026798367500E-09 4.190951585770E-09
     3.276650000000E+05
E27 2025 01 01 18 50 00-5.450865719467E-04-9.904965736496E-12 0.000000000000E+00
     3.700000000000E+01-2.109375000000E+01 3.534432937604E-09 2.516384559689E+00
    -1.018866896629E-06 3.202258376405E-04 6.342306733131E-06 5.440604496002E+03
     3.270000000000E+05-9.313225746155E-08 2.413466116471E+00-3.539025783539E-08
     9.641961178385E-01 2.076875000000E+02 5.557510490562E-01-5.599518956726E-09
    -5.396653363703E-10 5.170000000000E+02 2.347000000000E+03
     3.120000000000E+00 0.000000000000E+00-2.328306436539E-10 2.328306436539E-10
     3.276650000000E+05
S23 2025 01 01 19 01 52 0.000000000000E+00 0.000000000000E+00 3.277190000000E+05
     3.866796400000E+04 0.000000000000E+00 0.000000000000E+00 6.300000000000E+01
     1.681330800000E+04 0.000000000000E+00 0.000000000000E+00 3.276700000000E+04
     0.000000000000E+00 0.000000000000E+00 0.000000000000E+00 1.900000000000E+01
E13 2025 01 01 18 50 00-2.861866960302E-05-3.979039320257E-13 0.000000000000E+00
     3.700000000000E+01 1.728125000000E+02 2.579393156364E-09 2.084918527785E+00
     8.115544915199E-06 3.847082844004E-04 1.246109604836E-06 5.440610492706E+03
     3.270000000000E+05-1.862645149231E-08-1.775991529084E+00 4.284083843231E-08
     9.996866567333E-01 3.323125000000E+02-1.109015586494E+00-5.589875697903E-09
     1.967939115420E-10 2.580000000000E+02 2.347000000000E+03
     3.120000000000E+00 0.000000000000E+00 2.561137080193E-09 0.000000000000E+00
     3.277400000000E+05
E21 2025 01 01 18 50 00-6.376240053214E-04-2.245315045002E-12 0.000000000000E+00
     3.700000000000E+01-2.346875000000E+01 3.549076404706E-09 1.242685730757E+00
    -1.031905412674E-06 2.548374468461E-04 6.308779120445E-06 5.440604602814E+03
     3.270000000000E+05-1.676380634308E-08 2.413493682237E+00 3.725290298462E-08
     9.642247983474E-01 2.071562500000E+02 1.031722061079E+00-5.533444775900E-09
    -5.185930300527E-10 2.580000000000E+02 2.347000000000E+03
     3.120000000000E+00 0.000000000000E+00 0.000000000000E+00 0.000000000000E+00
     3.277400000000E+05
E15 2025 01 01 18 50 00-1.485156244598E-04-2.231104190287E-12 0.000000000000E+00
     3.700000000000E+01 1.612500000000E+02 2.505461505386E-09 2.956802282409E+00
     7.502734661102E-06 4.364517517388E-04 1.804903149605E-06 5.440612636566E+03
     3.270000000000E+05-3.166496753693E-08-1.776066256403E+00-1.862645149231E-09
     9.996431597901E-01 3.229687500000E+02-1.182206593684E+00-5.565946129712E-09
     1.871506527187E-10 2.580000000000E+02 2.347000000000E+03
     3.120000000000E+00 0.000000000000E+00 3.026798367500E-09 0.000000000000E+00
     3.277400000000E+05
E27 2025 01 01 18 50 00-5.450877361000E-04-9.919176591211E-12 0.000000000000E+00
     3.700000000000E+01-2.109375000000E+01 3.534432937604E-09 2.516384559689E+00
    -1.018866896629E-06 3.202258376405E-04 6.342306733131E-06 5.440604496002E+03
     3.270000000000E+05-9.313225746155E-08 2.413466116471E+00-3.539025783539E-08
     9.641961178385E-01 2.076875000000E+02 5.557510490562E-01-5.599518956726E-09
    -5.396653363703E-10 2.580000000000E+02 2.347000000000E+03
     3.120000000000E+00 0.000000000000E+00-2.328306436539E-10 0.000000000000E+00
     3.277400000000E+05
R10 2025 01 01 19 15 00-2.655005082488E-04-5.456968210638E-12 3.277200000000E+05
     1.314540039062E+03 3.143770217896E+00-0.000000000000E+00 0.000000000000E+00
    -1.105266748047E+04-3.921890258789E-02 9.313225746155E-10-7.000000000000E+00
     2.293766259766E+04-1.913070678711E-01-2.793967723846E-09 0.000000000000E+00
S36 2025 01 01 19 02 56 0.000000000000E+00 0.000000000000E+00 3.277760000000E+05
     4.200368800000E+04 0.000000000000E+00 0.000000000000E+00 6.300000000000E+01
     3.674846960000E+03 0.000000000000E+00 0.000000000000E+00 3.276700000000E+04
     0.000000000000E+00 0.000000000000E+00 0.000000000000E+00 9.000000000000E+01
C27 2025 01 01 19 00 00 4.177172668278E-04 5.121236767991E-12 0.000000000000E+00
     1.000000000000E+00 1.829531250000E+02 3.595506910152E-09-9.397239619264E-01
     8.900184184313E-06 5.024947458878E-04 8.661299943924E-06 5.282629474640E+03
     3.276000000000E+05-1.210719347000E-08-2.394088190949E+00-7.450580596924E-09
     9.563655533098E-01 1.806093750000E+02 1.193838969236E+00-6.713493929684E-09
    -9.571827276455E-11 0.000000000000E+00 9.910000000000E+02 0.000000000000E+00
     2.000000000000E+00 0.000000000000E+00-4.300000000000E-09-4.300000000000E-09
     3.277680000000E+05 1.000000000000E+00
S23 2025 01 01 19 04 00 0.000000000000E+00 0.000000000000E+00 3.278460000000E+05
     3.866796400000E+04 0.000000000000E+00 0.000000000000E+00 6.300000000000E+01
     1.681330800000E+04 0.000000000000E+00 0.000000000000E+00 3.276700000000E+04
     0.000000000000E+00 0.000000000000E+00 0.000000000000E+00 2.000000000000E+01
S36 2025 01 01 19 05 20 0.000000000000E+00 0.000000000000E+00 3.279260000000E+05
     4.200368800000E+04 0.000000000000E+00 0.000000000000E+00 6.300000000000E+01
     3.674846960000E+03 0.000000000000E+00 0.000000000000E+00 3.276700000000E+04
     0.000000000000E+00 0.000000000000E+00 0.000000000000E+00 9.100000000000E+01
S23 2025 01 01 19 06 08 0.000000000000E+00 0.000000000000E+00 3.279740000000E+05
     3.866796400000E+04 0.000000000000E+00 0.000000000000E+00 6.300000000000E+01
     1.681330800000E+04 0.000000000000E+00 0.000000000000E+00 3.276700000000E+04
     0.000000000000E+00 0.000000000000E+00 0.000000000000E+00 2.100000000000E+01
S36 2025 01 01 19 08 00 0.000000000000E+00 0.000000000000E+00 3.280820000000E+05
     4.200368800000E+04 0.000000000000E+00 0.000000000000E+00 6.300000000000E+01
     3.674846960000E+03 0.000000000000E+00 0.000000000000E+00 3.276700000000E+04
     0.000000000000E+00 0.000000000000E+00 0.000000000000E+00 9.200000000000E+01
S23 2025 01 01 19 08 16 0.000000000000E+00 0.000000000000E+00 3.281010000000E+05
     3.866796400000E+04 0.000000000000E+00 0.000000000000E+00 6.300000000000E+01
     1.681330800000E+04 0.000000000000E+00 0.000000000000E+00 3.276700000000E+04
     0.000000000000E+00 0.000000000000E+00 0.000000000000E+00 2.200000000000E+01
S23 2025 01 01 19 10 24 0.000000000000E+00 0.000000000000E+00 3.282280000000E+05
     3.866796400000E+04 0.000000000000E+00 0.000000000000E+00 6.300000000000E+01
     1.681330800000E+04 0.000000000000E+00 0.000000000000E+00 3.276700000000E+04
     0.000000000000E+00 0.000000000000E+00 0.000000000000E+00 2.300000000000E+01
S36 2025 01 01 19 10 24 0.000000000000E+00 0.000000000000E+00 3.282360000000E+05
     4.200368800000E+04 0.000000000000E+00 0.000000000000E+00 6.300000000000E+01
     3.674846960000E+03 0.000000000000E+00 0.000000000000E+00 3.276700000000E+04
     0.000000000000E+00 0.000000000000E+00 0.000000000000E+00 9.300000000000E+01
